NORAD_CAT_ID,OBJECT_NAME,OBJECT_TYPE,EPOCH,MEAN_MOTION,ECCENTRICITY,INCLINATION,RA_OF_ASC_NODE,ARG_OF_PERICENTER,MEAN_ANOMALY,BSTAR,MEAN_MOTION_DOT,MEAN_MOTION_DDOT,TLE_LINE0,TLE_LINE1,TLE_LINE2,SEMIMAJOR_AXIS,PERIOD,APOGEE,PERIGEE,DECAYED
49413.0,STARLINK-3157,PAYLOAD,2023-03-19 10:32:25,15.08862058,0.0001029,53.2157,55.4951,83.2931,276.8178,0.00093737,0.00014671,0.0,0 STARLINK-3157,1 49413U 21104F   23078.43918322  .00014671  00000-0  93737-3 0  9992,2 49413  53.2157  55.4951 0001029  83.2931 276.8178 15.08862058 74781,6917.813,95.436,540.39,538.966,0.0
49413.0,STARLINK-3157,PAYLOAD,2023-03-19 18:29:21,15.0883311,9.85e-05,53.2156,54.0086,99.3804,260.73,0.00046473,7.115e-05,0.0,0 STARLINK-3157,1 49413U 21104F   23078.77039120  .00007115  00000-0  46473-3 0  9999,2 49413  53.2156  54.0086 0000985  99.3804 260.7300 15.08833110 75924,6917.901,95.438,540.448,539.085,0.0
49413.0,STARLINK-3157,PAYLOAD,2023-03-19 21:40:08,15.08835907,0.0001014,53.2156,53.4137,98.4317,261.679,0.00073567,0.00011438,0.0,0 STARLINK-3157,1 49413U 21104F   23078.90287198  .00011438  00000-0  73567-3 0  9991,2 49413  53.2156  53.4137 0001014  98.4317 261.6790 15.08835907 74857,6917.893,95.438,540.459,539.056,0.0
49413.0,STARLINK-3157,PAYLOAD,2023-03-20 13:33:59,15.08836526,0.0001101,53.2155,50.4401,92.078,268.0338,0.00074158,0.00011533,0.0,0 STARLINK-3157,1 49413U 21104F   23079.56527536  .00011533  00000-0  74158-3 0  9990,2 49413  53.2155  50.4401 0001101  92.0780 268.0338 15.08836526 74956,6917.891,95.438,540.518,538.994,0.0
49413.0,STARLINK-3157,PAYLOAD,2023-03-20 16:44:45,15.08842723,0.0001071,53.2155,49.8452,109.3101,250.8007,0.00094371,0.00014764,0.0,0 STARLINK-3157,1 49413U 21104F   23079.69775447  .00014764  00000-0  94371-3 0  9998,2 49413  53.2155  49.8452 0001071 109.3101 250.8007 15.08842723 74979,6917.872,95.437,540.478,538.996,0.0
49413.0,STARLINK-3157,PAYLOAD,2023-03-21 07:03:13,15.08870583,0.0001068,53.2156,47.1684,113.5554,246.555,0.0020441,0.00032421,0.0,0 STARLINK-3157,1 49413U 21104F   23080.29390829  .00032421  00000-0  20441-2 0  9999,2 49413  53.2156  47.1684 0001068 113.5554 246.5550 15.08870583 76155,6917.787,95.436,540.391,538.913,0.0
49413.0,STARLINK-3157,PAYLOAD,2023-03-21 11:49:23,15.08832839,0.0001108,53.2156,46.2762,101.838,258.2737,-0.00062456,-0.00010212,0.0,0 STARLINK-3157,1 49413U 21104F   23080.49263110 -.00010212  00000-0 -62456-3 0  9992,2 49413  53.2156  46.2762 0001108 101.8380 258.2737 15.08832839 75095,6917.902,95.438,540.534,539.001,0.0
49413.0,STARLINK-3157,PAYLOAD,2023-03-21 13:24:46,15.08833254,0.0001116,53.2157,45.9789,98.8037,261.3082,-0.00049401,-8.14e-05,0.0,0 STARLINK-3157,1 49413U 21104F   23080.55887153 -.00008140  00000-0 -49401-3 0  9990,2 49413  53.2157  45.9789 0001116  98.8037 261.3082 15.08833254 76196,6917.901,95.438,540.538,538.994,0.0
49413.0,STARLINK-3157,PAYLOAD,2023-03-21 21:21:42,15.08837794,0.0001091,53.2158,44.4924,99.8616,260.25,0.00049404,7.583e-05,0.0,0 STARLINK-3157,1 49413U 21104F   23080.89007355  .00007583  00000-0  49404-3 0  9996,2 49413  53.2158  44.4924 0001091  99.8616 260.2500 15.08837794 75159,6917.887,95.438,540.507,538.997,0.0
49413.0,STARLINK-3157,PAYLOAD,2023-03-22 03:43:14,15.08848005,0.0001089,53.216,43.3028,104.6572,255.4541,0.001775,0.0002808,0.0,0 STARLINK-3157,1 49413U 21104F   23081.15503436  .00028080  00000-0  17750-2 0  9990,2 49413  53.2160  43.3028 0001089 104.6572 255.4541 15.08848005 76281,6917.856,95.437,540.474,538.968,0.0
49413.0,STARLINK-3157,PAYLOAD,2023-03-22 08:29:24,15.08860426,0.00011,53.2161,42.4107,100.1386,259.9731,0.0023852,0.00037898,0.0,0 STARLINK-3157,1 49413U 21104F   23081.35375341  .00037898  00000-0  23852-2 0  9991,2 49413  53.2161  42.4107 0001100 100.1386 259.9731 15.08860426 75222,6917.818,95.436,540.444,538.922,0.0
49413.0,STARLINK-3157,PAYLOAD,2023-03-23 03:34:01,15.08863415,0.0001172,53.2166,38.842,85.356,274.7566,0.0018086,0.00028632,0.0,0 STARLINK-3157,1 49413U 21104F   23082.14863414  .00028632  00000-0  18086-2 0  9991,2 49413  53.2166  38.8420 0001172  85.3560 274.7566 15.08863415 76437,6917.809,95.436,540.485,538.863,0.0
49413.0,STARLINK-3157,PAYLOAD,2023-03-23 06:44:48,15.0886991,0.0001193,53.2168,38.2475,82.8595,277.2533,0.0018682,0.00029594,0.0,0 STARLINK-3157,1 49413U 21104F   23082.28111205  .00029594  00000-0  18682-2 0  9990,2 49413  53.2168  38.2475 0001193  82.8595 277.2533 15.08869910 75365,6917.789,95.436,540.479,538.829,0.0
49413.0,STARLINK-3157,PAYLOAD,2023-03-24 03:24:48,15.08882177,0.0001045,53.2174,34.3827,103.5745,256.5364,0.0031181,0.00049744,0.0,0 STARLINK-3157,1 49413U 21104F   23083.14223024  .00049744  00000-0  31181-2 0  9997,2 49413  53.2174  34.3827 0001045 103.5745 256.5364 15.08882177 76581,6917.751,95.435,540.339,538.894,0.0
49413.0,STARLINK-3157,PAYLOAD,2023-03-24 06:35:34,15.08957225,0.0001079,53.2174,33.7878,105.5853,254.5258,0.0080674,0.00130919,0.0,0 STARLINK-3157,1 49413U 21104F   23083.27470386  .00130919  00000-0  80674-2 0  9992,2 49413  53.2174  33.7878 0001079 105.5853 254.5258 15.08957225 76609,6917.522,95.43,540.134,538.641,0.0
49413.0,STARLINK-3157,PAYLOAD,2023-03-25 03:15:35,15.08859639,0.0001058,53.2177,29.9243,82.379,277.7323,0.0014603,0.00023042,0.0,0 STARLINK-3157,1 49413U 21104F   23084.13582546  .00023042  00000-0  14603-2 0  9997,2 49413  53.2177  29.9243 0001058  82.3790 277.7323 15.08859639 76738,6917.82,95.436,540.417,538.953,0.0
49413.0,STARLINK-3157,PAYLOAD,2023-03-25 06:26:21,15.08867723,0.0001086,53.2179,29.3301,80.7447,279.3668,0.0016087,0.00025427,0.0,0 STARLINK-3157,1 49413U 21104F   23084.26830329  .00025427  00000-0  16087-2 0  9993,2 49413  53.2179  29.3301 0001086  80.7447 279.3668 15.08867723 75665,6917.796,95.436,540.412,538.909,0.0
49413.0,STARLINK-3157,PAYLOAD,2023-03-26 03:06:23,15.08837131,0.0001111,53.2179,25.4631,90.4127,269.6992,0.0015194,0.00023974,0.0,0 STARLINK-3157,1 49413U 21104F   23085.12943516  .00023974  00000-0  15194-2 0  9995,2 49413  53.2179  25.4631 0001111  90.4127 269.6992 15.08837131 76887,6917.889,95.438,540.523,538.986,0.0
49413.0,STARLINK-3157,PAYLOAD,2023-03-26 06:17:09,15.08837076,0.0001133,53.2178,24.8681,84.363,275.7491,0.001241,0.00019516,0.0,0 STARLINK-3157,1 49413U 21104F   23085.26191582  .00019516  00000-0  12410-2 0  9993,2 49413  53.2178  24.8681 0001133  84.3630 275.7491 15.08837076 76902,6917.889,95.438,540.538,538.971,0.0
49413.0,STARLINK-3157,PAYLOAD,2023-03-27 04:32:33,15.08846326,0.0001455,53.2178,20.7055,105.1867,254.9286,0.0016148,0.00025509,0.0,0 STARLINK-3157,1 49413U 21104F   23086.18928103  .00025509  00000-0  16148-2 0  9993,2 49413  53.2178  20.7055 0001455 105.1867 254.9286 15.08846326 77048,6917.861,95.437,540.733,538.72,0.0
49413.0,STARLINK-3157,PAYLOAD,2023-03-28 04:23:20,15.08857812,0.0001163,53.2162,16.2434,82.9988,277.1136,0.00067055,0.00010405,0.0,0 STARLINK-3157,1 49413U 21104F   23087.18287569  .00010405  00000-0  67055-3 0  9991,2 49413  53.2162  16.2434 0001163  82.9988 277.1136 15.08857812 77193,6917.826,95.436,540.495,538.886,0.0
49413.0,STARLINK-3157,PAYLOAD,2023-03-28 23:27:58,15.08845765,0.0001131,53.2181,12.6758,89.7096,270.4026,0.00025973,3.849e-05,0.0,0 STARLINK-3157,1 49413U 21104F   23087.97775536  .00003849  00000-0  25973-3 0  9991,2 49413  53.2181  12.6758 0001131  89.7096 270.4026 15.08845765 77315,6917.863,95.437,540.51,538.945,0.0
49413.0,STARLINK-3157,PAYLOAD,2023-03-29 04:14:06,15.08869004,0.0001247,53.2175,11.7828,98.463,261.6504,0.00069992,0.00010878,0.0,0 STARLINK-3157,1 49413U 21104F   23088.17646703  .00010878  00000-0  69992-3 0  9996,2 49413  53.2175  11.7828 0001247  98.4630 261.6504 15.08869004 77343,6917.792,95.436,540.519,538.794,0.0
49413.0,STARLINK-3157,PAYLOAD,2023-03-30 00:54:08,15.08840086,0.0001338,53.2177,7.9183,78.997,281.1172,0.00032343,4.863e-05,0.0,0 STARLINK-3157,1 49413U 21104F   23089.03759862  .00004863  00000-0  32343-3 0  9990,2 49413  53.2177   7.9183 0001338  78.9970 281.1172 15.08840086 77478,6917.88,95.438,540.671,538.82,0.0
49413.0,STARLINK-3157,PAYLOAD,2023-03-30 12:01:50,15.08836893,0.000129,53.2172,5.8372,74.9174,285.1961,0.00056279,8.679e-05,0.0,0 STARLINK-3157,1 49413U 21104F   23089.50128290  .00008679  00000-0  56279-3 0  9990,2 49413  53.2172   5.8372 0001290  74.9174 285.1961 15.08836893 77548,6917.89,95.438,540.647,538.862,0.0
49413.0,STARLINK-3157,PAYLOAD,2023-04-01 00:35:42,15.08856261,0.0001175,53.2181,358.9984,92.7936,267.3191,0.0006769,0.00010506,0.0,0 STARLINK-3157,1 49413U 21104F   23091.02480136  .00010506  00000-0  67690-3 0  9991,2 49413  53.2181 358.9984 0001175  92.7936 267.3191 15.08856261 76687,6917.831,95.437,540.509,538.883,0.0
49413.0,STARLINK-3157,PAYLOAD,2023-04-01 18:04:58,15.08843868,0.0001517,53.2177,355.7248,95.2613,264.8552,5.2013e-05,5.4e-06,0.0,0 STARLINK-3157,1 49413U 21104F   23091.75344918  .00000540  00000-0  52013-4 0  9999,2 49413  53.2177 355.7248 0001517  95.2613 264.8552 15.08843868 77885,6917.869,95.437,540.783,538.684,0.0
49413.0,STARLINK-3157,PAYLOAD,2023-04-02 00:26:30,15.08837734,0.0001192,53.2187,354.5384,78.374,281.7386,0.00016004,2.26e-05,0.0,0 STARLINK-3157,1 49413U 21104F   23092.01840872  .00002260  00000-0  16004-3 0  9999,2 49413  53.2187 354.5384 0001192  78.3740 281.7386 15.08837734 76838,6917.887,95.438,540.577,538.928,0.0
49413.0,STARLINK-3157,PAYLOAD,2023-04-02 17:55:45,15.088402,0.0001124,53.2184,351.2687,76.9021,283.2096,0.00057727,8.911e-05,0.0,0 STARLINK-3157,1 49413U 21104F   23092.74705305  .00008911  00000-0  57727-3 0  9996,2 49413  53.2184 351.2687 0001124  76.9021 283.2096 15.08840200 78037,6917.88,95.438,540.522,538.967,0.0
49413.0,STARLINK-3157,PAYLOAD,2023-04-02 21:06:31,15.08845324,0.000118,53.2188,350.6745,78.6315,281.481,0.0006561,0.00010171,0.0,0 STARLINK-3157,1 49413U 21104F   23092.87953207  .00010171  00000-0  65610-3 0  9997,2 49413  53.2188 350.6745 0001180  78.6315 281.4810 15.08845324 76962,6917.864,95.437,540.545,538.913,0.0
